0 COSMOS 1275 DEB
1 15780U 81053KH  13281.38203006  .00001009  00000-0  83676-3 0  4623
2 15780 082.8193 238.5345 0061726 062.9641 063.6821 13.87005661436303
0 COSMOS 1275 DEB
1 15780U 81053KH  13282.88365774  .00001084  00000-0  89964-3 0  4630
2 15780 082.8193 237.3796 0061753 058.8256 001.5221 13.87011231436514
0 COSMOS 1275 DEB
1 15780U 81053KH  13285.83511391  .00001041  00000-0  86299-3 0  4659
2 15780 082.8196 235.1094 0061725 050.6558 338.6655 13.87017280436928
0 COSMOS 1275 DEB
1 15780U 81053KH  13287.30240329  .00001145  00000-0  95078-3 0  4664
2 15780 082.8198 233.9806 0061732 046.6305 105.0917 13.87020392437128
0 COSMOS 1275 DEB
1 15780U 81053KH  13288.31336725  .00001420  00000-0  11820-2 0  4671
2 15780 082.8200 233.2030 0061721 043.8409 113.0331 13.87023587437269
0 COSMOS 1275 DEB
1 15780U 81053KH  13289.32288417  .00001189  00000-0  98775-3 0  4685
2 15780 082.8201 232.4267 0061704 041.0574 113.7570 13.87027180437408
0 COSMOS 1275 DEB
1 15780U 81053KH  13290.33571647  .00001269  00000-0  10555-2 0  4697
2 15780 082.8203 231.6480 0061686 038.2662 131.0463 13.87029200437547
0 COSMOS 1275 DEB
1 15780U 81053KH  13292.28010177  .00001344  00000-0  11180-2 0  4700
2 15780 082.8204 230.1528 0061631 032.9062 119.8088 13.87033801437819
0 COSMOS 1275 DEB
1 15780U 81053KH  13293.84717688  .00001399  00000-0  11647-2 0  4713
2 15780 082.8203 228.9478 0061590 028.5997 024.5854 13.87038317438034
0 COSMOS 1275 DEB
1 15780U 81053KH  13295.31053030  .00001428  00000-0  11887-2 0  4721
2 15780 082.8204 227.8225 0061533 024.5559 131.4987 13.87042864438239
